1 95609U          19305.59861111  .00000000  00000-0  00000-0 0 00000
2 95609 097.6120 194.6320 0000000 000.0000 157.1780 00.06258000000000
1 95609U          19306.02222222  .00000000  00000-0  00000-0 0 00000
2 95609 097.6110 195.0500 0000000 000.0000 284.6780 00.06258000000000
1 95609U          19306.36597222  .00000000  00000-0  00000-0 0 00000
2 95609 097.6110 195.3880 0000000 000.0000 340.9270 00.06258000000000
1 95609U          19306.66250000  .00000000  00000-0  00000-0 0 00000
2 95609 097.6100 195.6810 0000000 000.0000 142.1770 00.06258000000000
1 95609U          19306.99444444  .00000000  00000-0  00000-0 0 00000
2 95609 097.6100 196.0080 0000000 000.0000 134.6770 00.06258000000000
1 95609U          19307.33611111  .00000000  00000-0  00000-0 0 00000
2 95609 097.6090 196.3450 0000000 000.0000 179.6770 00.06258000000000
1 95609U          19307.62986111  .00000000  00000-0  00000-0 0 00000
2 95609 097.6090 196.6340 0000000 000.0000 325.9270 00.06258000000000
1 95609U          19308.03819444  .00000000  00000-0  00000-0 0 00000
2 95609 097.6080 197.0360 0000000 000.0000 010.9270 00.06258000000000
1 95609U          19308.26111111  .00000000  00000-0  00000-0 0 00000
2 95609 097.6070 197.2560 0000000 000.0000 134.6760 00.06258000000000
1 95609U          19308.74652778  .00000000  00000-0  00000-0 0 00000
2 95609 097.6070 197.7350 0000000 000.0000 235.9260 00.06258000000000
1 95609U          19309.05277778  .00000000  00000-0  00000-0 0 00000
2 95609 097.6060 198.0360 0000000 000.0000 089.6760 00.06258000000000
1 95609U          19309.38055556  .00000000  00000-0  00000-0 0 00000
2 95609 097.6060 198.3590 0000000 000.0000 059.6760 00.06258000000000
1 95609U          19309.68194444  .00000000  00000-0  00000-0 0 00000
2 95609 097.6050 198.6560 0000000 000.0000 247.1760 00.06258000000000
1 95609U          19309.95277778  .00000000  00000-0  00000-0 0 00000
2 95609 097.6050 198.9230 0000000 000.0000 269.6760 00.06258000000000
1 95609U          19310.41111111  .00000000  00000-0  00000-0 0 00000
2 95609 097.6040 199.3750 0000000 000.0000 224.6750 00.06258000000000
1 95609U          19310.63055556  .00000000  00000-0  00000-0 0 00000
2 95609 097.6030 199.5910 0000000 000.0000 329.6750 00.06258000000000
1 95609U          19310.97777778  .00000000  00000-0  00000-0 0 00000
2 95609 097.6030 199.9330 0000000 000.0000 044.6750 00.06258000000000
1 95609U          19311.40902778  .00000000  00000-0  00000-0 0 00000
2 95609 097.6020 200.3580 0000000 000.0000 213.4250 00.06258000000000
1 95609U          19311.64027778  .00000000  00000-0  00000-0 0 00000
2 95609 097.6020 200.5860 0000000 000.0000 022.1740 00.06258000000000
1 95609U          19311.89583333  .00000000  00000-0  00000-0 0 00000
2 95609 097.6010 200.8380 0000000 000.0000 322.1740 15.01914300000000
1 95609U          19312.21180556  .00000000  00000-0  00000-0 0 00000
2 95609 097.6010 201.1500 0000000 000.0000 228.4240 15.01914300000000
1 95609U          19312.50555556  .00000000  00000-0  00000-0 0 00000
2 95609 097.6000 201.4390 0000000 000.0000 014.6740 15.01914300000000
1 95609U          19312.85347222  .00000000  00000-0  00000-0 0 00000
2 95609 097.5990 201.7820 0000000 000.0000 093.4240 15.01914300000000
1 95609U          19313.20000000  .00000000  00000-0  00000-0 0 00000
2 95609 097.5990 202.1240 0000000 000.0000 164.6730 15.01914300000000
1 95609U          19313.59861111  .00000000  00000-0  00000-0 0 00000
2 95609 097.5980 202.5160 0000000 000.0000 157.1730 15.01914300000000
1 95609U          19313.88888889  .00000000  00000-0  00000-0 0 00000
2 95609 097.5980 202.8020 0000000 000.0000 284.6730 15.01914300000000
1 95609U          19314.16597222  .00000000  00000-0  00000-0 0 00000
2 95609 097.5970 203.0750 0000000 000.0000 340.9230 15.01914300000000
1 95609U          19314.61736111  .00000000  00000-0  00000-0 0 00000
2 95609 097.5960 203.5200 0000000 000.0000 258.4220 15.01914300000000
1 95609U          19314.95138889  .00000000  00000-0  00000-0 0 00000
2 95609 097.5960 203.8500 0000000 000.0000 262.1720 15.01914300000000
1 95609U          19315.19097222  .00000000  00000-0  00000-0 0 00000
2 95609 097.5950 204.0860 0000000 000.0000 115.9220 15.01914300000000
1 95609U          19315.49722222  .00000000  00000-0  00000-0 0 00000
2 95609 097.5950 204.3870 0000000 000.0000 329.6720 15.01914300000000
1 95609U          19315.91736111  .00000000  00000-0  00000-0 0 00000
2 95609 097.5940 204.8010 0000000 000.0000 078.4220 15.01914300000000
1 95609U          19316.30208333  .00000000  00000-0  00000-0 0 00000
2 95609 097.5940 205.1810 0000000 000.0000 355.9210 15.01914300000000
1 95609U          19316.61180556  .00000000  00000-0  00000-0 0 00000
2 95609 097.5930 205.4860 0000000 000.0000 228.4210 15.01914300000000
1 95609U          19316.94583333  .00000000  00000-0  00000-0 0 00000
2 95609 097.5930 205.8150 0000000 000.0000 232.1710 15.01914300000000
1 95609U          19317.14583333  .00000000  00000-0  00000-0 0 00000
2 95609 097.5920 206.0120 0000000 000.0000 232.1710 15.01914300000000
1 95609U          19317.57291667  .00000000  00000-0  00000-0 0 00000
2 95609 097.5910 206.4330 0000000 000.0000 018.4200 15.01914300000000
1 95609U          19317.87361111  .00000000  00000-0  00000-0 0 00000
2 95609 097.5910 206.7290 0000000 000.0000 202.1700 15.01914300000000
1 95609U          19318.23680556  .00000000  00000-0  00000-0 0 00000
2 95609 097.5900 207.0870 0000000 000.0000 003.4200 15.01914300000000
1 95609U          19318.55694444  .00000000  00000-0  00000-0 0 00000
2 95609 097.5900 207.4030 0000000 000.0000 292.1690 15.01914300000000
1 95609U          19318.89583333  .00000000  00000-0  00000-0 0 00000
2 95609 097.5890 207.7370 0000000 000.0000 322.1690 15.01914300000000
1 95609U          19318.89583333  .00000000  00000-0  00000-0 0 00000
2 95609 097.5890 207.7370 0000000 000.0000 322.1690 15.01914300000000
1 95609U          19319.18541667  .00000000  00000-0  00000-0 0 00000
2 95609 097.5890 208.0220 0000000 000.0000 085.9190 15.01914300000000
1 95609U          19319.52708333  .00000000  00000-0  00000-0 0 00000
2 95609 097.5880 208.3590 0000000 000.0000 130.9190 15.01914300000000
1 95609U          19319.97291667  .00000000  00000-0  00000-0 0 00000
2 95609 097.5880 208.7980 0000000 000.0000 018.4180 15.01914300000000
1 95609U          19320.28402778  .00000000  00000-0  00000-0 0 00000
2 95609 097.5870 209.1050 0000000 000.0000 258.4180 15.01914300000000
1 95609U          19320.53125000  .00000000  00000-0  00000-0 0 00000
2 95609 097.5870 209.3480 0000000 000.0000 153.4180 15.01914300000000
1 95609U          19320.87430556  .00000000  00000-0  00000-0 0 00000
2 95609 097.5860 209.6870 0000000 000.0000 205.9170 15.01914300000000
1 95609U          19321.29791667  .00000000  00000-0  00000-0 0 00000
2 95609 097.5850 210.1040 0000000 000.0000 333.4170 15.01914300000000
1 95609U          19321.49444444  .00000000  00000-0  00000-0 0 00000
2 95609 097.5850 210.2980 0000000 000.0000 314.6670 15.01914300000000
1 95609U          19321.86319444  .00000000  00000-0  00000-0 0 00000
2 95609 097.5840 210.6610 0000000 000.0000 145.9160 15.01914300000000
1 95609U          19322.20486111  .00000000  00000-0  00000-0 0 00000
2 95609 097.5840 210.9980 0000000 000.0000 190.9160 15.01914300000000
1 95609U          19322.58055556  .00000000  00000-0  00000-0 0 00000
2 95609 097.5830 211.3680 0000000 000.0000 059.6660 15.01914300000000
1 95609U          19322.97569444  .00000000  00000-0  00000-0 0 00000
2 95609 097.5830 211.7570 0000000 000.0000 033.4150 15.01914300000000
1 95609U          19323.16666667  .00000000  00000-0  00000-0 0 00000
2 95609 097.5820 211.9460 0000000 000.0000 344.6650 15.01914300000000
1 95609U          19323.63472222  .00000000  00000-0  00000-0 0 00000
2 95609 097.5820 212.4070 0000000 000.0000 352.1650 15.01914300000000
1 95609U          19323.92847222  .00000000  00000-0  00000-0 0 00000
2 95609 097.5810 212.6960 0000000 000.0000 138.4150 15.01914300000000
1 95609U          19324.27222222  .00000000  00000-0  00000-0 0 00000
2 95609 097.5810 213.0350 0000000 000.0000 194.6640 15.01914300000000
1 95609U          19324.54027778  .00000000  00000-0  00000-0 0 00000
2 95609 097.5800 213.2990 0000000 000.0000 202.1640 15.01914300000000
1 95609U          19324.96597222  .00000000  00000-0  00000-0 0 00000
2 95609 097.5800 213.7190 0000000 000.0000 340.9130 15.01914300000000
1 95609U          19325.21180556  .00000000  00000-0  00000-0 0 00000
2 95609 097.5790 213.9610 0000000 000.0000 228.4130 15.01914300000000
1 95609U          19325.50138889  .00000000  00000-0  00000-0 0 00000
2 95609 097.5790 214.2460 0000000 000.0000 352.1630 15.01914300000000
1 95609U          19325.89583333  .00000000  00000-0  00000-0 0 00000
2 95609 097.5780 214.6350 0000000 000.0000 322.1630 15.01914300000000
1 95609U          19325.94444444  .00000000  00000-0  00000-0 0 00000
2 95609 097.5800 214.6720 0013460 010.0110 214.8960 15.02618400000000
1 95609U          19326.27013889  .00000000  00000-0  00000-0 0 00000
2 95609 097.5720 214.9960 0000630 348.7380 195.7270 14.99658100000000
1 95609U          19326.61111111  .00000000  00000-0  00000-0 0 00000
2 95609 097.5770 215.3270 0013090 013.2410 213.4420 15.02818300000000
1 95609U          19326.90486111  .00000000  00000-0  00000-0 0 00000
2 95609 097.5740 215.6210 0008770 025.5880 348.0880 14.99950900000000
1 95609U          19327.30972222  .00000000  00000-0  00000-0 0 00000
2 95609 096.9630 216.8100 0178400 001.4320 042.3140 15.26465600000000
1 95609U          19327.52013889  .00000000  00000-0  00000-0 0 00000
2 95609 096.9670 217.0180 0195590 358.5460 119.8510 15.27922100000000
1 95609U          19327.84652778  .00000000  00000-0  00000-0 0 00000
2 95609 096.9670 217.3260 0195090 356.1680 113.4320 15.28675400000000
1 95609U          19328.18333333  .00000000  00000-0  00000-0 0 00000
2 95609 096.9560 217.6410 0185380 359.7230 158.2610 15.24190400000000
